{"type":"FeatureCollection","features":[{"type":"Feature","geometry":{"type":"Polygon","coordinates":[[[-158.0035,21.6994],[-158.0039,21.7001],[-158.0087,21.7001],[-158.0092,21.7009],[-158.0094,21.6996],[-158.0083,21.6992],[-158.0081,21.6982],[-158.0097,21.6964],[-158.0124,21.6959],[-158.0132,21.6966],[-158.0127,21.697],[-158.013,21.6981],[-158.0136,21.6983],[-158.0169,21.6951],[-158.0213,21.6925],[-158.0218,21.6911],[-158.0254,21.6887],[-158.0298,21.6867],[-158.0332,21.6816],[-158.038,21.6807],[-158.0392,21.6788],[-158.0392,21.6763],[-158.0405,21.6742],[-158.0462,21.6707],[-158.0475,21.6687],[-158.0515,21.6658],[-158.0548,21.662],[-158.0587,21.6589],[-158.0612,21.6554],[-158.0631,21.655],[-158.0623,21.6535],[-158.0626,21.6523],[-158.0617,21.6515],[-158.0633,21.6493],[-158.0636,21.6508],[-158.0639,21.6503],[-158.0631,21.6471],[-158.0638,21.6455],[-158.0647,21.6456],[-158.0649,21.6433],[-158.0628,21.6422],[-158.063,21.6415],[-158.0658,21.6387],[-158.0687,21.638],[-158.0688,21.636],[-158.0697,21.6342],[-158.0709,21.6331],[-158.0722,21.6334],[-158.0713,21.6321],[-158.074,21.6281],[-158.0773,21.6251],[-158.0811,21.6238],[-158.0824,21.6216],[-158.0847,21.6211],[-158.0859,21.6198],[-158.0858,21.6189],[-158.0902,21.6152],[-158.0949,21.6134],[-158.097,21.61],[-158.1003,21.6087],[-158.1039,21.6052],[-158.1077,21.603],[-158.1066,21.6017],[-158.1052,21.6017],[-158.1052,21.6004],[-158.1042,21.6001],[-158.1036,21.5973],[-158.1039,21.5962],[-158.1033,21.5954],[-158.1043,21.5943],[-158.1048,21.5953],[-158.1057,21.595],[-158.105,21.595],[-158.1046,21.594],[-158.1059,21.5934],[-158.1039,21.5934],[-158.1055,21.5927],[-158.1064,21.5931],[-158.1066,21.5948],[-158.1074,21.5947],[-158.1098,21.5935],[-158.111,21.5906],[-158.113,21.589],[-158.1189,21.5893],[-158.1199,21.5877],[-158.1163,21.5841],[-158.1204,21.5815],[-158.122,21.5848],[-158.1235,21.5832],[-158.1286,21.5821],[-158.132,21.5824],[-158.1349,21.5837],[-158.1378,21.5842],[-158.1514,21.5808],[-158.1552,21.581],[-158.1588,21.5799],[-158.1634,21.5808],[-158.1679,21.5789],[-158.1738,21.5817],[-158.1788,21.5803],[-158.1882,21.5828],[-158.1921,21.5829],[-158.1953,21.5815],[-158.2006,21.5828],[-158.2032,21.5817],[-158.2065,21.5821],[-158.2105,21.5816],[-158.2191,21.5785],[-158.2239,21.5795],[-158.2289,21.579],[-158.2342,21.5799],[-158.2425,21.5799],[-158.245,21.579],[-158.2479,21.5796],[-158.2511,21.5793],[-158.2521,21.5798],[-158.2568,21.5778],[-158.2602,21.5782],[-158.2611,21.5772],[-158.2631,21.5779],[-158.2636,21.5772],[-158.2681,21.5771],[-158.2704,21.576],[-158.273,21.576],[-158.2735,21.5754],[-158.2783,21.5762],[-158.2787,21.5755],[-158.281,21.5747],[-158.2802,21.5743],[-158.2806,21.5737],[-158.2793,21.5731],[-158.2777,21.5725],[-158.2763,21.5728],[-158.2762,21.5723],[-158.2735,21.5716],[-158.2695,21.5692],[-158.2658,21.5667],[-158.2651,21.5656],[-158.2623,21.5642],[-158.2623,21.5634],[-158.2602,21.5627],[-158.259,21.5608],[-158.2572,21.5601],[-158.2567,21.5587],[-158.25,21.5563],[-158.2493,21.5552],[-158.2485,21.5556],[-158.2486,21.5547],[-158.2463,21.5518],[-158.2419,21.548],[-158.2405,21.5459],[-158.2407,21.5451],[-158.2389,21.5443],[-158.2364,21.5411],[-158.2339,21.5397],[-158.2316,21.5369],[-158.2301,21.5338],[-158.229,21.5269],[-158.2304,21.5252],[-158.2288,21.5237],[-158.2284,21.5218],[-158.2296,21.5166],[-158.2302,21.5163],[-158.2288,21.5142],[-158.2287,21.5129],[-158.2297,21.5107],[-158.2293,21.5087],[-158.2307,21.5002],[-158.23,21.4981],[-158.2305,21.491],[-158.23,21.489],[-158.2311,21.4829],[-158.2268,21.4784],[-158.2256,21.4778],[-158.222,21.478],[-158.221,21.4771],[-158.2174,21.4687],[-158.218,21.4683],[-158.2177,21.4674],[-158.2134,21.4635],[-158.213,21.4612],[-158.2144,21.4607],[-158.2146,21.4597],[-158.2119,21.4597],[-158.2098,21.4608],[-158.2052,21.4593],[-158.2028,21.4566],[-158.2023,21.4536],[-158.2003,21.4531],[-158.2001,21.4519],[-158.1983,21.4515],[-158.1961,21.4488],[-158.1927,21.4485],[-158.1928,21.4476],[-158.19,21.4455],[-158.1891,21.4436],[-158.1893,21.4422],[-158.1902,21.441],[-158.192,21.4406],[-158.192,21.4401],[-158.1903,21.4406],[-158.1892,21.4403],[-158.1829,21.4301],[-158.1794,21.4284],[-158.1809,21.4287],[-158.1798,21.4265],[-158.1799,21.4237],[-158.1784,21.4179],[-158.1786,21.4153],[-158.1773,21.4116],[-158.1787,21.4066],[-158.1769,21.4034],[-158.1767,21.4015],[-158.1725,21.3981],[-158.1667,21.3972],[-158.1627,21.3957],[-158.1591,21.3931],[-158.1482,21.3832],[-158.1464,21.3793],[-158.1429,21.3774],[-158.1412,21.3748],[-158.1415,21.3733],[-158.1411,21.372],[-158.1392,21.3722],[-158.1379,21.3708],[-158.1378,21.3692],[-158.1361,21.369],[-158.1312,21.3562],[-158.1303,21.3559],[-158.131,21.3556],[-158.1303,21.3544],[-158.1308,21.3519],[-158.1288,21.347],[-158.1289,21.3443],[-158.1279,21.3424],[-158.1278,21.3402],[-158.1243,21.3342],[-158.1229,21.3242],[-158.1221,21.3227],[-158.1202,21.3236],[-158.1191,21.322],[-158.1207,21.3215],[-158.1211,21.3222],[-158.1217,21.3219],[-158.12,21.319],[-158.1179,21.3119],[-158.111,21.2996],[-158.1064,21.2962],[-158.1012,21.295],[-158.0863,21.2956],[-158.0819,21.2976],[-158.0782,21.2983],[-158.075,21.2984],[-158.0736,21.2977],[-158.0734,21.2983],[-158.0673,21.2995],[-158.0517,21.3008],[-158.044,21.3037],[-158.0357,21.3047],[-158.0345,21.304],[-158.0328,21.3042],[-158.0276,21.306],[-158.0223,21.306],[-158.0117,21.3092],[-157.9819,21.3159],[-157.9786,21.3155],[-157.977,21.3163],[-157.9754,21.3187],[-157.9714,21.3224],[-157.9705,21.3261],[-157.972,21.3285],[-157.9731,21.3272],[-157.9736,21.3248],[-157.9769,21.3229],[-157.9782,21.3209],[-157.9793,21.3212],[-157.9792,21.3221],[-157.977,21.3234],[-157.9756,21.3259],[-157.9721,21.329],[-157.9725,21.3313],[-157.9731,21.3315],[-157.9732,21.3343],[-157.9726,21.3347],[-157.9744,21.3371],[-157.9748,21.3392],[-157.9766,21.34],[-157.9775,21.3426],[-157.9793,21.3438],[-157.9818,21.3483],[-157.9869,21.3488],[-157.9922,21.3484],[-157.9933,21.3497],[-157.9931,21.3526],[-157.9941,21.3534],[-157.9965,21.3538],[-158.0013,21.3517],[-158.0058,21.3546],[-158.0073,21.3547],[-158.0079,21.3555],[-158.0069,21.3554],[-158.0076,21.3567],[-158.0085,21.3569],[-158.0094,21.3556],[-158.0103,21.3555],[-158.0124,21.356],[-158.0149,21.3578],[-158.0166,21.3568],[-158.0188,21.3573],[-158.0218,21.3585],[-158.0233,21.3623],[-158.0228,21.3632],[-158.021,21.3636],[-158.0217,21.3645],[-158.0212,21.3653],[-158.0198,21.3658],[-158.0181,21.3652],[-158.0162,21.3656],[-158.0193,21.3678],[-158.0212,21.3724],[-158.02,21.374],[-158.0176,21.3738],[-158.0165,21.3774],[-158.0152,21.3785],[-158.0148,21.378],[-158.0138,21.3784],[-158.0126,21.3762],[-158.0125,21.3744],[-158.0113,21.3734],[-158.0109,21.3739],[-158.0106,21.373],[-158.0095,21.373],[-158.009,21.3742],[-158.0083,21.3735],[-158.0088,21.3718],[-158.0079,21.3708],[-158.007,21.3713],[-158.0076,21.3725],[-158.0064,21.3735],[-158.0064,21.3724],[-158.0046,21.3719],[-158.0053,21.3709],[-158.0045,21.37],[-158.0029,21.3701],[-158.0033,21.3695],[-158.0029,21.3692],[-158.0045,21.3673],[-158.0044,21.3651],[-158.0016,21.3632],[-158.0005,21.3617],[-158.0003,21.3601],[-158.0011,21.3589],[-158.0001,21.357],[-157.9992,21.3564],[-157.998,21.3566],[-157.9951,21.3595],[-157.9929,21.3595],[-157.9902,21.3605],[-157.9888,21.3621],[-157.9873,21.3623],[-157.9875,21.361],[-157.9883,21.3604],[-157.9884,21.3578],[-157.9892,21.3581],[-157.9927,21.3568],[-157.9898,21.3546],[-157.9889,21.3518],[-157.9855,21.3509],[-157.9828,21.3521],[-157.9813,21.3519],[-157.9802,21.3513],[-157.9794,21.3491],[-157.9771,21.3463],[-157.9758,21.3458],[-157.9734,21.342],[-157.9714,21.3417],[-157.9713,21.3446],[-157.972,21.3453],[-157.9714,21.3466],[-157.9727,21.3493],[-157.971,21.3524],[-157.9711,21.354],[-157.9715,21.355],[-157.9739,21.3565],[-157.9742,21.3586],[-157.975,21.3589],[-157.9759,21.3608],[-157.9751,21.3623],[-157.9752,21.3647],[-157.9746,21.366],[-157.9772,21.3659],[-157.9781,21.3666],[-157.9795,21.3656],[-157.9818,21.3652],[-157.9862,21.3692],[-157.9879,21.3718],[-157.988,21.3745],[-157.9912,21.3775],[-157.9914,21.3818],[-157.9925,21.3861],[-157.9905,21.3879],[-157.9844,21.388],[-157.9851,21.3874],[-157.9849,21.3852],[-157.9809,21.3801],[-157.9787,21.3795],[-157.9776,21.3782],[-157.9759,21.378],[-157.9755,21.3764],[-157.9761,21.3749],[-157.9752,21.3745],[-157.9747,21.3729],[-157.9732,21.372],[-157.9735,21.3715],[-157.97,21.3696],[-157.9688,21.3696],[-157.9668,21.3732],[-157.9667,21.3798],[-157.969,21.383],[-157.9694,21.3866],[-157.968,21.3872],[-157.9667,21.3863],[-157.9662,21.387],[-157.9633,21.3874],[-157.963,21.3885],[-157.9624,21.3874],[-157.9614,21.388],[-157.9608,21.3874],[-157.959,21.3871],[-157.9568,21.3851],[-157.9529,21.383],[-157.9516,21.3833],[-157.9501,21.3822],[-157.9481,21.3826],[-157.9449,21.3803],[-157.9422,21.3794],[-157.9428,21.3766],[-157.9411,21.3749],[-157.94,21.376],[-157.9369,21.3775],[-157.9355,21.3768],[-157.9349,21.3756],[-157.9345,21.3766],[-157.9344,21.3757],[-157.9337,21.3758],[-157.9342,21.3741],[-157.9348,21.3743],[-157.9344,21.3739],[-157.9366,21.3737],[-157.9356,21.372],[-157.9372,21.3697],[-157.9386,21.3692],[-157.9396,21.3673],[-157.9399,21.3665],[-157.9379,21.3658],[-157.9383,21.3651],[-157.9405,21.3658],[-157.9441,21.364],[-157.9407,21.3652],[-157.9417,21.3632],[-157.9453,21.3622],[-157.9453,21.3612],[-157.9471,21.3605],[-157.9454,21.3608],[-157.9453,21.3597],[-157.9483,21.3586],[-157.9487,21.3577],[-157.9468,21.3554],[-157.9418,21.3598],[-157.9414,21.3595],[-157.9422,21.3586],[-157.9414,21.3595],[-157.941,21.3592],[-157.9418,21.3582],[-157.9405,21.3588],[-157.9435,21.3552],[-157.9444,21.3549],[-157.9435,21.3551],[-157.9442,21.3545],[-157.9435,21.3546],[-157.9441,21.354],[-157.9432,21.3539],[-157.9439,21.3537],[-157.94,21.3534],[-157.9399,21.3526],[-157.9436,21.3523],[-157.943,21.35],[-157.9504,21.3542],[-157.9517,21.3522],[-157.9525,21.3525],[-157.9512,21.3554],[-157.9528,21.3529],[-157.9534,21.3529],[-157.9517,21.356],[-157.953,21.3547],[-157.9537,21.355],[-157.9527,21.3566],[-157.9538,21.3551],[-157.9532,21.3564],[-157.9542,21.3553],[-157.9548,21.3556],[-157.9543,21.357],[-157.9593,21.3499],[-157.9582,21.3533],[-157.9607,21.35],[-157.9597,21.3526],[-157.9612,21.3508],[-157.9607,21.3523],[-157.962,21.3514],[-157.9622,21.3522],[-157.963,21.351],[-157.9625,21.3524],[-157.9642,21.352],[-157.9679,21.349],[-157.968,21.3476],[-157.9665,21.3459],[-157.9641,21.3482],[-157.9635,21.348],[-157.9662,21.3454],[-157.9649,21.3434],[-157.9647,21.3414],[-157.9679,21.3383],[-157.9684,21.3363],[-157.9685,21.3313],[-157.9679,21.3308],[-157.9675,21.3313],[-157.9678,21.3308],[-157.9668,21.3303],[-157.9673,21.3298],[-157.9666,21.3302],[-157.9662,21.3301],[-157.9668,21.3295],[-157.9661,21.33],[-157.9654,21.3292],[-157.9662,21.3287],[-157.966,21.3278],[-157.9648,21.3287],[-157.9642,21.3277],[-157.9641,21.326],[-157.9657,21.3253],[-157.9638,21.3255],[-157.9614,21.32],[-157.9563,21.3166],[-157.9545,21.3164],[-157.9541,21.317],[-157.9543,21.316],[-157.9536,21.3159],[-157.9536,21.317],[-157.9521,21.3172],[-157.9469,21.3163],[-157.9461,21.3096],[-157.9487,21.3095],[-157.9494,21.3064],[-157.9487,21.3058],[-157.9487,21.3039],[-157.9502,21.3038],[-157.9068,21.3042],[-157.9062,21.3051],[-157.9062,21.3089],[-157.9069,21.3099],[-157.9081,21.3104],[-157.9184,21.3106],[-157.9194,21.3114],[-157.9194,21.3129],[-157.9126,21.3178],[-157.9138,21.3181],[-157.9136,21.3187],[-157.9126,21.3183],[-157.9111,21.3188],[-157.9107,21.3196],[-157.9114,21.3201],[-157.9093,21.3202],[-157.9077,21.3227],[-157.9064,21.3227],[-157.9064,21.3222],[-157.8989,21.3274],[-157.8991,21.3298],[-157.8977,21.329],[-157.8962,21.3305],[-157.8937,21.3312],[-157.8939,21.3336],[-157.8921,21.3309],[-157.89,21.3318],[-157.8915,21.3292],[-157.8933,21.3275],[-157.893,21.3265],[-157.8948,21.3253],[-157.8924,21.3203],[-157.8913,21.3204],[-157.8923,21.3196],[-157.8908,21.3145],[-157.8863,21.3158],[-157.8862,21.3173],[-157.8854,21.3172],[-157.8856,21.3161],[-157.8829,21.317],[-157.8827,21.3199],[-157.8819,21.3198],[-157.8822,21.3172],[-157.8814,21.3171],[-157.8812,21.3197],[-157.8805,21.3197],[-157.8805,21.3168],[-157.8791,21.3192],[-157.8775,21.32],[-157.8795,21.3166],[-157.8786,21.3162],[-157.8779,21.3173],[-157.8772,21.317],[-157.8776,21.3159],[-157.8768,21.3173],[-157.8762,21.317],[-157.8778,21.3137],[-157.8702,21.3088],[-157.8695,21.309],[-157.8716,21.3104],[-157.8713,21.3108],[-157.8695,21.3098],[-157.8705,21.3122],[-157.8699,21.3124],[-157.869,21.31],[-157.8675,21.3103],[-157.8668,21.314],[-157.8658,21.3139],[-157.8653,21.3122],[-157.8656,21.311],[-157.8649,21.3107],[-157.8655,21.31],[-157.8647,21.3103],[-157.8644,21.3092],[-157.8665,21.3073],[-157.8663,21.3056],[-157.8647,21.3064],[-157.8646,21.3059],[-157.8658,21.3052],[-157.8645,21.3055],[-157.8649,21.3041],[-157.8636,21.3035],[-157.8644,21.3034],[-157.8677,21.299],[-157.8697,21.2954],[-157.868,21.2956],[-157.8666,21.2946],[-157.8653,21.2962],[-157.8665,21.2945],[-157.8611,21.2903],[-157.8593,21.2934],[-157.8588,21.2931],[-157.8574,21.2944],[-157.8558,21.2936],[-157.8551,21.2932],[-157.8561,21.2912],[-157.858,21.2922],[-157.8594,21.2909],[-157.8551,21.2911],[-157.847,21.2884],[-157.8463,21.2875],[-157.8464,21.2867],[-157.8484,21.2843],[-157.8481,21.2835],[-157.8462,21.283],[-157.8461,21.2823],[-157.8467,21.2822],[-157.8461,21.2816],[-157.8443,21.2878],[-157.8407,21.2878],[-157.8412,21.2868],[-157.8395,21.2836],[-157.8402,21.2844],[-157.841,21.2839],[-157.8428,21.2863],[-157.8432,21.2861],[-157.8406,21.2827],[-157.8412,21.2824],[-157.8438,21.2853],[-157.8414,21.2822],[-157.8402,21.2808],[-157.8392,21.2813],[-157.8375,21.2807],[-157.837,21.281],[-157.8353,21.2787],[-157.8332,21.2774],[-157.827,21.2761],[-157.8255,21.2748],[-157.8229,21.2706],[-157.8229,21.2683],[-157.8234,21.2683],[-157.8215,21.2613],[-157.8186,21.2576],[-157.8149,21.2561],[-157.8072,21.2547],[-157.796,21.2572],[-157.7949,21.2563],[-157.7952,21.2559],[-157.7916,21.2551],[-157.7907,21.2561],[-157.791,21.2587],[-157.7804,21.2649],[-157.7771,21.2694],[-157.7748,21.2709],[-157.7688,21.2726],[-157.7647,21.275],[-157.7613,21.2761],[-157.7595,21.276],[-157.7583,21.2737],[-157.7559,21.2738],[-157.7547,21.2744],[-157.7544,21.2762],[-157.7479,21.2775],[-157.7429,21.28],[-157.7378,21.2798],[-157.7363,21.2805],[-157.7346,21.2797],[-157.7336,21.2801],[-157.7331,21.2818],[-157.7309,21.282],[-157.7273,21.2811],[-157.7233,21.2811],[-157.7218,21.2828],[-157.7238,21.2819],[-157.7251,21.2826],[-157.7246,21.2818],[-157.7252,21.2822],[-157.7253,21.2813],[-157.7273,21.2817],[-157.7281,21.2826],[-157.7254,21.2838],[-157.7229,21.2843],[-157.7224,21.2836],[-157.7216,21.2845],[-157.7208,21.284],[-157.7189,21.2847],[-157.7178,21.2865],[-157.7187,21.2869],[-157.7178,21.2867],[-157.7173,21.2876],[-157.7184,21.2881],[-157.7166,21.2883],[-157.7181,21.2892],[-157.7164,21.2887],[-157.7158,21.2893],[-157.7179,21.2901],[-157.7169,21.2918],[-157.7172,21.2903],[-157.7166,21.2902],[-157.7161,21.2911],[-157.7162,21.2899],[-157.7154,21.2899],[-157.7155,21.2917],[-157.7165,21.2923],[-157.7153,21.2917],[-157.7152,21.2895],[-157.7165,21.288],[-157.7159,21.2876],[-157.7147,21.2885],[-157.7158,21.2873],[-157.7168,21.2877],[-157.7174,21.2864],[-157.7153,21.2858],[-157.7122,21.2892],[-157.714,21.2858],[-157.7131,21.2855],[-157.7119,21.2878],[-157.7124,21.2858],[-157.7116,21.2855],[-157.7108,21.2875],[-157.7114,21.2902],[-157.71,21.2931],[-157.7094,21.2929],[-157.7101,21.2925],[-157.7109,21.2901],[-157.7098,21.2901],[-157.7093,21.2921],[-157.7092,21.2906],[-157.7104,21.2883],[-157.7098,21.2883],[-157.7084,21.2902],[-157.709,21.2933],[-157.7082,21.2926],[-157.7081,21.2898],[-157.7075,21.289],[-157.7101,21.2873],[-157.7093,21.2855],[-157.7149,21.2845],[-157.717,21.2861],[-157.7185,21.2851],[-157.7186,21.284],[-157.718,21.2835],[-157.7134,21.2821],[-157.7139,21.2818],[-157.7122,21.2812],[-157.7114,21.2826],[-157.7091,21.2833],[-157.7094,21.2849],[-157.7071,21.2839],[-157.7003,21.2881],[-157.7001,21.2899],[-157.6975,21.2928],[-157.6963,21.2963],[-157.6963,21.2991],[-157.6952,21.3011],[-157.6945,21.2999],[-157.6957,21.2985],[-157.6957,21.2975],[-157.6941,21.2951],[-157.6911,21.2957],[-157.6879,21.2983],[-157.6897,21.2961],[-157.6927,21.2945],[-157.6973,21.2893],[-157.6995,21.2894],[-157.6995,21.288],[-157.7031,21.2851],[-157.7033,21.2839],[-157.702,21.2836],[-157.6996,21.2862],[-157.699,21.2861],[-157.7005,21.2839],[-157.7019,21.2833],[-157.704,21.281],[-157.7059,21.2779],[-157.7106,21.2817],[-157.7112,21.2812],[-157.709,21.2762],[-157.7086,21.2701],[-157.7117,21.2635],[-157.7117,21.262],[-157.7095,21.2596],[-157.7071,21.2591],[-157.6998,21.2602],[-157.6918,21.2636],[-157.692,21.2652],[-157.6942,21.2661],[-157.6952,21.2674],[-157.6948,21.2683],[-157.6971,21.2682],[-157.697,21.2704],[-157.6961,21.272],[-157.6941,21.2727],[-157.6919,21.2709],[-157.6913,21.2694],[-157.6905,21.2697],[-157.6903,21.2689],[-157.6893,21.2686],[-157.6869,21.2731],[-157.6871,21.2742],[-157.6863,21.2748],[-157.6863,21.2759],[-157.6844,21.2756],[-157.6846,21.2769],[-157.684,21.2766],[-157.6819,21.2779],[-157.6818,21.2788],[-157.6813,21.2785],[-157.6781,21.2805],[-157.6775,21.2803],[-157.6769,21.2815],[-157.6774,21.2817],[-157.6763,21.2822],[-157.6757,21.2837],[-157.6739,21.2853],[-157.6693,21.2862],[-157.6681,21.288],[-157.6668,21.2882],[-157.6646,21.2903],[-157.6613,21.2916],[-157.6601,21.2928],[-157.6586,21.2925],[-157.6577,21.2932],[-157.6592,21.2941],[-157.6613,21.2941],[-157.6589,21.2947],[-157.6583,21.2945],[-157.6591,21.2941],[-157.6577,21.294],[-157.6575,21.2948],[-157.6583,21.2953],[-157.658,21.2958],[-157.6564,21.2959],[-157.6548,21.2976],[-157.6539,21.2966],[-157.6541,21.2977],[-157.6532,21.2976],[-157.6509,21.2989],[-157.6498,21.3035],[-157.6489,21.3041],[-157.6492,21.3081],[-157.6486,21.3097],[-157.6489,21.311],[-157.6496,21.3111],[-157.6507,21.3101],[-157.6534,21.3109],[-157.6575,21.31],[-157.6593,21.3102],[-157.6606,21.3118],[-157.6604,21.314],[-157.6616,21.3156],[-157.6642,21.317],[-157.6659,21.3161],[-157.6676,21.3165],[-157.6737,21.3219],[-157.6794,21.3252],[-157.6842,21.3264],[-157.6883,21.3283],[-157.6933,21.3321],[-157.7047,21.3486],[-157.708,21.3567],[-157.7087,21.3568],[-157.7082,21.3575],[-157.7092,21.3603],[-157.7097,21.3662],[-157.7059,21.3766],[-157.706,21.3803],[-157.7084,21.3813],[-157.7115,21.388],[-157.7166,21.3936],[-157.7204,21.3962],[-157.7228,21.3959],[-157.7269,21.3984],[-157.7329,21.3996],[-157.7348,21.4007],[-157.7379,21.4035],[-157.7414,21.4089],[-157.7445,21.4183],[-157.7448,21.4207],[-157.7444,21.4225],[-157.7437,21.4225],[-157.7433,21.4238],[-157.7415,21.4255],[-157.7402,21.4254],[-157.7392,21.4242],[-157.7381,21.4254],[-157.7379,21.4283],[-157.7373,21.4286],[-157.7357,21.4334],[-157.7367,21.4391],[-157.7365,21.4438],[-157.7345,21.446],[-157.7326,21.4457],[-157.7322,21.4464],[-157.7299,21.4467],[-157.7259,21.4497],[-157.7261,21.4506],[-157.725,21.4516],[-157.7256,21.4519],[-157.7253,21.4541],[-157.7242,21.455],[-157.7234,21.4544],[-157.7226,21.4556],[-157.7223,21.4589],[-157.7282,21.4595],[-157.7298,21.4603],[-157.733,21.459],[-157.736,21.4564],[-157.7391,21.4558],[-157.74,21.4543],[-157.7427,21.4535],[-157.7467,21.4538],[-157.7628,21.4593],[-157.7638,21.4606],[-157.7629,21.4622],[-157.7635,21.4629],[-157.7657,21.4611],[-157.7664,21.4587],[-157.7678,21.4578],[-157.7682,21.4564],[-157.773,21.4572],[-157.7742,21.4539],[-157.7767,21.4525],[-157.7776,21.451],[-157.7766,21.4491],[-157.7786,21.4461],[-157.7772,21.4437],[-157.7723,21.4427],[-157.7658,21.4397],[-157.7643,21.4385],[-157.7654,21.4376],[-157.7643,21.4383],[-157.7638,21.4381],[-157.7624,21.4401],[-157.7626,21.4386],[-157.7586,21.437],[-157.7574,21.4357],[-157.7578,21.4347],[-157.7607,21.4325],[-157.7611,21.4286],[-157.7632,21.4285],[-157.7642,21.4277],[-157.7644,21.4259],[-157.7655,21.4244],[-157.7643,21.4213],[-157.7653,21.4194],[-157.7666,21.419],[-157.7665,21.4161],[-157.7685,21.416],[-157.7694,21.4142],[-157.7715,21.4147],[-157.7718,21.4129],[-157.773,21.4121],[-157.7727,21.4115],[-157.7732,21.4119],[-157.7729,21.4126],[-157.7742,21.413],[-157.7769,21.4118],[-157.7803,21.412],[-157.781,21.4108],[-157.7809,21.4113],[-157.7827,21.4116],[-157.7868,21.4139],[-157.7877,21.4177],[-157.7915,21.4178],[-157.7905,21.4181],[-157.7911,21.4182],[-157.791,21.4189],[-157.7899,21.4182],[-157.7905,21.42],[-157.7894,21.4204],[-157.788,21.4231],[-157.7889,21.4248],[-157.7914,21.4242],[-157.7911,21.4276],[-157.792,21.4286],[-157.7951,21.4287],[-157.7945,21.4259],[-157.7964,21.4247],[-157.7981,21.4252],[-157.7996,21.4249],[-157.7999,21.4243],[-157.8018,21.4268],[-157.8031,21.4268],[-157.8049,21.43],[-157.8079,21.4325],[-157.8112,21.4372],[-157.8096,21.4397],[-157.8086,21.4399],[-157.8086,21.4414],[-157.8076,21.4416],[-157.8073,21.4424],[-157.8075,21.4429],[-157.8088,21.443],[-157.8093,21.4421],[-157.8111,21.4423],[-157.8114,21.4426],[-157.8096,21.4433],[-157.8108,21.443],[-157.8096,21.4439],[-157.8098,21.4445],[-157.8116,21.4429],[-157.8144,21.4488],[-157.8144,21.4505],[-157.8159,21.4544],[-157.8171,21.4544],[-157.8204,21.4526],[-157.8223,21.4524],[-157.8234,21.4534],[-157.8248,21.4532],[-157.8264,21.455],[-157.8263,21.4561],[-157.829,21.4567],[-157.8299,21.4579],[-157.8306,21.4575],[-157.8312,21.4579],[-157.8326,21.4626],[-157.8337,21.4618],[-157.8338,21.461],[-157.8347,21.461],[-157.834,21.4599],[-157.8343,21.458],[-157.8365,21.4576],[-157.839,21.4605],[-157.8406,21.4602],[-157.8427,21.4635],[-157.843,21.4648],[-157.8423,21.4664],[-157.8444,21.4715],[-157.8431,21.4729],[-157.8431,21.4744],[-157.8422,21.4753],[-157.8415,21.4786],[-157.8417,21.483],[-157.8424,21.4843],[-157.845,21.484],[-157.849,21.4869],[-157.849,21.489],[-157.847,21.4928],[-157.849,21.494],[-157.8506,21.4962],[-157.8524,21.5029],[-157.8524,21.5047],[-157.8512,21.5059],[-157.8513,21.5075],[-157.8489,21.5073],[-157.8491,21.5065],[-157.8477,21.5064],[-157.84,21.5088],[-157.8371,21.5084],[-157.8347,21.5091],[-157.8357,21.5175],[-157.8343,21.5264],[-157.8348,21.5283],[-157.838,21.5346],[-157.8401,21.5365],[-157.8421,21.542],[-157.8448,21.5438],[-157.8461,21.5458],[-157.8468,21.5502],[-157.8525,21.557],[-157.8548,21.558],[-157.8559,21.5577],[-157.8596,21.5587],[-157.8642,21.5606],[-157.866,21.5587],[-157.8691,21.5579],[-157.8691,21.5575],[-157.8676,21.5581],[-157.8671,21.5577],[-157.8687,21.5567],[-157.8691,21.5572],[-157.8693,21.5561],[-157.8731,21.5556],[-157.8761,21.5572],[-157.8765,21.5584],[-157.8759,21.5588],[-157.8754,21.562],[-157.8746,21.563],[-157.8751,21.5731],[-157.877,21.5751],[-157.8838,21.5781],[-157.886,21.5805],[-157.8884,21.5888],[-157.8919,21.5924],[-157.8936,21.593],[-157.8949,21.5942],[-157.8986,21.6031],[-157.9053,21.6072],[-157.9074,21.6075],[-157.9085,21.6084],[-157.9095,21.608],[-157.9087,21.6085],[-157.909,21.6099],[-157.9099,21.61],[-157.9103,21.6106],[-157.9095,21.6107],[-157.9129,21.6149],[-157.9128,21.6169],[-157.9134,21.6172],[-157.9128,21.6173],[-157.9125,21.6196],[-157.9181,21.6245],[-157.9205,21.6257],[-157.9214,21.628],[-157.9203,21.629],[-157.9213,21.6303],[-157.9201,21.6331],[-157.921,21.6328],[-157.9201,21.634],[-157.9197,21.6334],[-157.9186,21.6345],[-157.9181,21.6405],[-157.919,21.6438],[-157.9183,21.6465],[-157.9175,21.6475],[-157.9122,21.6484],[-157.9181,21.649],[-157.9222,21.6482],[-157.9237,21.6503],[-157.9273,21.6523],[-157.9288,21.6553],[-157.9271,21.6609],[-157.9319,21.6623],[-157.934,21.6636],[-157.9358,21.6655],[-157.9368,21.668],[-157.9366,21.6718],[-157.9344,21.6734],[-157.9329,21.6732],[-157.9329,21.6738],[-157.9349,21.6752],[-157.9367,21.675],[-157.9402,21.6776],[-157.9446,21.6846],[-157.9447,21.6874],[-157.9484,21.6898],[-157.9496,21.6923],[-157.9557,21.6974],[-157.9589,21.7022],[-157.9634,21.7043],[-157.9639,21.7062],[-157.9657,21.7078],[-157.9661,21.7095],[-157.9678,21.7097],[-157.9693,21.709],[-157.9743,21.7101],[-157.9763,21.7093],[-157.9792,21.7093],[-157.9808,21.7104],[-157.9833,21.7106],[-157.9834,21.7122],[-157.9843,21.7124],[-157.9844,21.7093],[-157.9901,21.7047],[-157.9957,21.7057],[-157.9967,21.707],[-157.9967,21.7061],[-157.9977,21.7053],[-157.9995,21.7072],[-157.9996,21.7047],[-157.9985,21.704],[-157.999,21.7024],[-158.0008,21.7],[-158.0035,21.6994]],[[-157.9459,21.3162],[-157.9378,21.3156],[-157.9348,21.314],[-157.9327,21.314],[-157.9297,21.3123],[-157.9289,21.3101],[-157.9452,21.3102],[-157.9459,21.3162]]]},"properties":{"isle":"Oahu","sqmi":597.06899999999996}}]}